#dP2024 10 15  0  0  0.00000000      97 __u+U IGS20 FIT  IAC
## 2336 172800.00000000   900.00000000 60598 0.0000000000000
+  119   C06C07C08C09C10C11C12C13C14C16C19C20C21C22C23C24C25
+        C26C27C28C29C30C32C33C34C35C36C37C38C39C40C41C42C43
+        C44C45E02E03E04E05E06E07E08E09E10E11E12E13E14E15E18
+        E19E21E24E25E26E27E29E30E31E33E34E36G02G03G04G05G06
+        G07G08G09G10G11G12G13G14G15G16G17G18G19G20G21G22G23
+        G24G25G26G27G28G29G30G31G32J02J03J04R01R02R03R04R05
+        R07R08R09R11R12R14R15R16R17R18R19R20R21R22R24R25R26
++         7  7  7  7  7  6  6  7  6  7  5  5  5  5  5  5  6
++         5  5  5  5  5  6  5  6  5  6  6  6  6  6  5  5  5
++         6  5  4  4  4  4  3  4  4  3  4  4  4  4  4  4  4
++         4  4  4  4  4  4  4  4  4  4  4  4  3  3  3  3  4
++         3  3  3  4  3  3  3  3  3  3  3  3  3  3  3  3  3
++         3  4  3  3  4  3  5  3  4 11 11 11  7  6  6  6  7
++         6  6  6  6  6  7  7  7  6  6  7  7  7  6  6  8  7
%c M  cc GPS ccc cccc cccc cccc cccc ccccc ccccc ccccc ccccc
%c cc cc ccc ccc cccc cccc cccc cccc ccccc ccccc ccccc ccccc
%f  1.2500000  1.025000000  0.00000000000  0.000000000000000
%f  0.0000000  0.000000000  0.00000000000  0.000000000000000
%i    0    0    0    0      0      0      0      0         0
%i    0    0    0    0      0      0      0      0         0
/* INFORMATION & ANALYSIS CENTER (IAC)            FINAL DATA
/* S/V CLOCKS ARE ALIGNED TO GNSS TIME                      
/* G:C1WC2W R:C1PC2P E:C1XC5X C:C2IC6I J:C1CC2S             
/* PCV:IGS20_2317 OL/AL:FES2004  NONE     YN ORB:CoN CLK:CoN
*  2024 10 15  1  0  0.00000000
PC06 -16415.173968  36189.633251 -14413.797238    325.731883
PC07  -3651.167066  34847.739978 -23166.579292   -288.755024
PC08 -10111.075845  18636.757329  36396.895177   -661.505038
PC09 -12733.788656  35038.679827 -19805.898098   -478.754045
PC10   3076.565277  37408.091435 -18258.113047   -229.083345
PC11 -16746.287329   6691.999168 -21214.635245    194.204033
PC12 -10714.415099 -14539.596226 -21229.125353   -258.795846
PC13  -1428.168160  21508.330505  36403.513192     96.758045
PC14 -20970.188869  -3297.856096  18141.779341   -312.064898
PC16 -20950.511276  35569.988303  -9162.277415    181.538260
PC19  15700.981648  -5641.042785 -22353.300878   -948.975132
PC20  22659.025197  10323.102583 -12576.004433   -931.215821
PC21 -16492.491746 -21722.540030  -5953.870012   -921.971993
PC22   -700.613271 -19476.771653 -19994.628726    151.685931
PC23 -11201.654196  17318.521392 -18791.082164   -858.170938
PC24 -24691.587125  -2501.120345  12717.752824    799.268013
PC25 -25293.694454  11007.818726  -4155.946843    533.178055
PC26  -9833.874573 -13695.173879  22212.916335   -362.886302
PC27   5727.990656  22267.618668  15800.974573    382.497561
PC28  -5683.666045  27253.547533   1885.882058    296.978257
PC29  15584.186180 -15998.425553  16733.860159    348.710233
PC30  15227.553155   5594.888777  22702.599410 999999.999999
PC32  16557.297859  21614.675486   6098.924344   -767.100177
PC33 -15784.180018   5639.851298  22305.693697   -958.129555
PC34 -15769.756886  -3563.627187 -22753.660088    542.568167
PC35   5061.801695 -27397.730551  -1264.743151    235.106439
PC36  25360.095277 -10724.108240   4613.660071    202.930258
PC37   9435.870005  13960.651340 -22241.382051   -893.526447
PC38 -18711.981852  18994.885255  32665.042140    185.275519
PC39 -21790.043070  35997.156967  -4294.036797    -10.121033
PC40  -7341.736720  31379.268925 -26991.877715    -96.751285
PC41   -206.967936  19006.955207  20470.933532   -898.573812
PC42 -22818.281655 -11772.476924  10996.885784   -494.212551
PC43 -15918.004944  15042.619055 -17308.433827     88.985362
PC44  -6638.593319 -22130.368633 -15644.759983    622.649460
PC45  11861.464674 -17123.475025  18578.837022   -148.403194
PE02  27901.032569   9912.414453    -62.763937    166.992041
PE03  17239.115515  11570.411618 -21106.286327   -146.934529
PE04 -14343.462204  11309.945798  23290.166137    -57.375286
PE05   9918.218056  27111.076432  -6547.045523   4792.949711
PE06  -9518.521062  20818.585771  18749.767766    -36.333720
PE07   3469.219381 -26749.853976 -12202.155040   -147.385896
PE08  14532.648181 -10417.599793 -23599.291458   -351.579906
PE09  -3458.289636  26689.048992  12304.892091   -626.230408
PE10 -20855.416202  20746.738542   3211.384929   -663.227955
PE11 -13571.672040  22814.607900  13091.200920   1252.472565
PE12 -24289.438146  15870.210660  -5876.523229  -1252.157011
PE13  14064.402555 -22785.454025 -12612.706272    -25.759775
PE14   1194.526055 -29613.294977   8383.626426    295.565452
PE15  24392.785222 -15430.246133   6581.183720   -133.118380
PE18  -7901.232944  20365.243286 -13536.953131    659.263024
PE19 -16750.645823 -13668.539047  20215.898974    777.285785
PE21 -16198.039223 -18089.508472  16928.741341   -622.508157
PE24  -5609.299461  15951.253769 -24307.706044  -1043.046277
PE25  15791.288830  18165.098451 -17226.180970     10.134729
PE26  -4864.043469 -16503.692988 -24078.755375   -240.637243
PE27   5460.589402 -15943.311847  24337.865920   -478.041905
PE29 -10108.881095 -26946.115919   6880.030351    -37.741537
PE30  23607.267760  -4426.665188  17300.688665   -819.936683
PE31 -23603.812017   4424.797563 -17293.256340    -39.297809
PE33 -19965.410155  -1268.870561 -21803.570505     15.807967
PE34  20245.331970    815.883013  21586.313114   -140.079346
PE36   4264.242512  16704.021686  24067.905646   -297.132243
PG02  13317.461802 -21869.037353  -5874.454929   -336.913852
PG03   4311.524058 -14084.870033 -22266.415107    570.432986
PG04   1842.088151 -24319.438521 -10322.939176    461.822868
PG05 -20087.184114   6632.811449  15920.219242   -189.816317
PG06 -17208.038386  -1812.904579 -20114.838990    -39.142648
PG07  -1677.899557 -18136.435230  19705.754404    -27.634855
PG08   9064.112968 -16199.068710  18714.046491    384.520736
PG09  -6718.843874 -25644.067353   -982.345045    399.060084
PG10  23791.773975  10720.788119   6056.257522   -158.836800
PG11 -22128.004792  10699.342013  -9945.735644   -743.955568
PG12  -9327.438959  12733.285480 -21637.255362   -545.183848
PG13 -13624.215038   7837.309424  21141.063152    681.483150
PG14 -21373.324378 -13173.382607   9056.981866    517.719044
PG15  -6622.712219  17813.466135  17970.634011    215.832106
PG16  23372.952503   -811.304011  12658.483334   -154.699305
PG17 -13207.372316 -18157.432572 -13622.512431    595.169296
PG18   2029.431936  17036.422360  20237.300457   -657.972276
PG19 -15283.947514  -9748.052081 -19702.918294    550.591096
PG20 -25751.177608   1950.462535   5930.620890    369.665095
PG21  16608.918001 -19955.411987   -138.445477     99.746791
PG22 -24310.584659 -10210.065923   1557.330901    -71.097279
PG23  14094.098443  15066.879915  16885.336370    341.805704
PG24 -13591.388718  22118.887879  -4905.887408   -484.734918
PG25   5380.190309  16497.661014 -20520.499785    499.513738
PG26  26422.941357   4156.462604    934.235299     55.541842
PG27  14377.201685  -4637.767011  21541.321811    -34.556212
PG28  16233.327415   3848.668389 -20682.364228   -446.106068
PG29   3067.353305  26201.447100  -2481.959341   -571.193393
PG30 -11342.567134 -11037.964232  21480.568893   -302.242912
PG31  21763.268106  -6792.030178 -14168.058765   -223.376023
PG32  15090.989358  15967.516732 -14854.057400   -586.627795
PJ02 -25798.206293  16976.216140 -24064.035849     -1.269620
PJ03 -27852.168405  31403.543541    465.175475     -4.619932
PJ04 -26090.932292  25688.683042  26678.451576     21.967593
PR01 -16640.240721 -18952.705458   3831.326718    101.063884
PR02 -15764.615583  -7502.069636  18603.221897    -25.172664
PR03  -6710.345916   9072.217871  22921.865271    109.429545
PR04   5663.841099  20051.625699  14753.477606    259.309632
PR05  15002.995177  20607.902437  -1318.050406    139.161482
PR07   6414.617124  -9387.062082 -22794.128388     92.946016
PR08  -5987.166394 -20095.431617 -14440.820963     -6.407522
PR09  25141.383726  -1420.164729  -3764.299519    214.750038
PR11   5592.720789 -11206.171871  22229.238697      9.273698
PR12 -15367.915842  -7553.061357  18925.663747     46.036445
PR14 -20243.347842   8566.362375 -12947.144016     27.089098
PR15  -3760.163091  11278.252465 -22549.499684     74.890549
PR16  15207.210773   7432.106981 -19058.885081     29.953658
PR17 -13614.243721  19600.562788  -8923.377109    130.833792
PR18  -7367.904360  23257.018887   7538.800101    166.920233
PR19   1129.460611  16607.358737  19328.934794   -294.881673
PR20  12734.912405  -3269.452326  21866.371832   -120.477171
PR21  13949.972309 -19029.247449   9745.114484   -142.837269
PR22   7105.902338 -22942.918801  -8553.889471     20.590663
PR24 -13119.778557   4219.932415 -21435.420698    -76.039183
PR25  14391.294472 -19281.000850   8525.001228    -91.832821
PR26  -4929.857568 -19447.750268 -15747.245751     83.793905
EOF
